STARLINK-4091           
1 52830U 22062A   22190.66667824 -.00000566  00000+0  39562-6 0  9997
2 52830  53.2174 295.3096 0002082  33.9059  42.1851 15.73204460  3991
STARLINK-4089           
1 52831U 22062B   22190.66667824 -.00086367  00000+0 -62010-3 0  9993
2 52831  53.2154 295.3136 0002060  21.7058  52.8887 15.73091238  3999
STARLINK-4083           
1 52832U 22062C   22190.58334491 -.00153247  00000+0 -11109-2 0  9990
2 52832  53.2151 295.7237 0002005  31.8770 291.1179 15.73125032  1300
STARLINK-4086           
1 52833U 22062D   22190.58334491 -.00158981  00000+0 -11537-2 0  9996
2 52833  53.2158 295.7251 0002081  29.1421 294.4892 15.73119041  1302
STARLINK-4108           
1 52834U 22062E   22190.58334491 -.00185868  00000+0 -13530-2 0  9996
2 52834  53.2150 295.7192 0002089  32.7754 292.0101 15.73133678  1305
STARLINK-4080           
1 52835U 22062F   22190.58334491 -.00129579  00000+0 -93661-3 0  9998
2 52835  53.2157 295.7212 0002015  28.3113 297.0983 15.73110341  1300
STARLINK-4043           
1 52836U 22062G   22190.58334491 -.00132321  00000+0 -95725-3 0  9991
2 52836  53.2150 295.7178 0002247  37.6915 288.3090 15.73099074  1306
STARLINK-4036           
1 52837U 22062H   22190.58334491  .00029531  00000+0  21445-3 0  9996
2 52837  53.2150 295.7149 0001973  25.7921 301.7536 15.73159847  1305
STARLINK-4092           
1 52838U 22062J   22190.66667824  .00536991  00000+0  36507-2 0  9992
2 52838  53.2169 295.3051 0002149  35.4797  43.2542 15.72814998  3984
STARLINK-4048           
1 52839U 22062K   22190.66667824 -.00000436  00000+0  13175-5 0  9993
2 52839  53.2174 295.3008 0002099  38.1241  42.7358 15.73204420  3984
STARLINK-4049           
1 52840U 22062L   22190.58334491 -.00178740  00000+0 -13014-2 0  9991
2 52840  53.2150 295.7128 0002132  30.6640 297.7209 15.73105679  1302
STARLINK-4065           
1 52841U 22062M   22190.58334491 -.00136309  00000+0 -98698-3 0  9999
2 52841  53.2157 295.7106 0001744  33.4695 297.3134 15.73094611  1301
STARLINK-4046           
1 52842U 22062N   22190.58334491 -.00130596  00000+0 -94422-3 0  9993
2 52842  53.2152 295.7161 0001953  28.7713 298.4165 15.73107873  1309
STARLINK-4188           
1 52843U 22062P   22190.58334491 -.00126026  00000+0 -91105-3 0  9992
2 52843  53.2155 295.7079 0001657  27.7484 304.2101 15.73095756  1308
STARLINK-4208           
1 52844U 22062Q   22190.66667824  .00044741  00000+0  32248-3 0  9995
2 52844  53.2153 295.2994 0001941  17.2673  64.2992 15.73128086  3988
STARLINK-4168           
1 52845U 22062R   22190.66667824  .00072735  00000+0  51872-3 0  9994
2 52845  53.2150 295.2920 0001669  24.3544  60.2825 15.73175088  3983
STARLINK-4212           
1 52846U 22062S   22190.58334491 -.00173913  00000+0 -12643-2 0  9991
2 52846  53.2152 295.7080 0001998  28.0557 303.3256 15.73126811  1301
STARLINK-4206           
1 52847U 22062T   22190.58334491 -.00010089  00000+0 -67597-4 0  9996
2 52847  53.2154 295.7053 0002087  26.3297 307.1420 15.73180048  1303
STARLINK-4202           
1 52848U 22062U   22190.66667824 -.00028790  00000+0 -20275-3 0  9994
2 52848  53.2152 295.2975 0001932  24.4971  57.8576 15.73044208  3980
STARLINK-4197           
1 52849U 22062V   22190.66667824 -.00198846  00000+0 -14466-2 0  9999
2 52849  53.2163 295.2897 0002206  38.8964  48.0903 15.73187825  3981
STARLINK-4187           
1 52850U 22062W   22190.58334491 -.00180916  00000+0 -13159-2 0  9990
2 52850  53.2154 295.7050 0002053  30.1561 302.9823 15.73136848  1303
STARLINK-3809           
1 52851U 22062X   22190.58334491  .00012787  00000+0  95539-4 0  9993
2 52851  53.2150 295.6996 0002078  28.3198 306.9827 15.73162269  1304
STARLINK-4184           
1 52852U 22062Y   22190.66667824  .00055345  00000+0  39672-3 0  9994
2 52852  53.2154 295.2901 0002127  30.2306  56.1306 15.73165535  3980
STARLINK-4189           
1 52853U 22062Z   22190.58334491 -.00002704  00000+0 -14836-4 0  9996
2 52853  53.2172 295.6982 0002327  43.5834 292.7923 15.73205262  1308
STARLINK-4204           
1 52854U 22062AA  22190.66667824  .00068024  00000+0  48624-3 0  9991
2 52854  53.2153 295.2866 0002011  25.9163  62.1950 15.73147573  3989
STARLINK-4209           
1 52855U 22062AB  22190.66667824 -.00056180  00000+0 -40092-3 0  9995
2 52855  53.2159 295.2839 0002057  32.0751  58.6253 15.73058906  3985
STARLINK-4201           
1 52856U 22062AC  22190.66667824 -.00044410  00000+0 -31370-3 0  9998
2 52856  53.2155 295.2841 0002097  31.5480  57.7533 15.73195365  3984
STARLINK-4199           
1 52857U 22062AD  22190.66667824 -.00076537  00000+0 -54883-3 0  9998
2 52857  53.2155 295.2801 0002037  23.7040  68.2080 15.73071803  3984
STARLINK-4198           
1 52858U 22062AE  22190.58334491 -.00119380  00000+0 -86194-3 0  9995
2 52858  53.2152 295.6946 0001803  33.6459 304.2582 15.73099108  1302
STARLINK-4196           
1 52859U 22062AF  22190.66667824 -.00000051  00000+0  40677-5 0  9995
2 52859  53.2174 295.2790 0002283  30.0562  62.1298 15.73204269  3985
STARLINK-4191           
1 52860U 22062AG  22190.58334491 -.00057275  00000+0 -40604-3 0  9998
2 52860  53.2155 295.6938 0002165  26.1288 312.7310 15.73220008  1306
STARLINK-4112           
1 52861U 22062AH  22190.58334491 -.00070993  00000+0 -50769-3 0  9994
2 52861  53.2152 295.6844 0001766  31.3945 311.8641 15.73106435  1308
STARLINK-4010           
1 52862U 22062AJ  22190.58334491 -.00076810  00000+0 -54986-3 0  9994
2 52862  53.2145 295.6877 0002020  28.1332 312.4931 15.73112585  1307
STARLINK-4270           
1 52863U 22062AK  22190.58334491 -.00110868  00000+0 -79956-3 0  9991
2 52863  53.2153 295.6874 0002182  38.1902 303.8855 15.73091623  1305
STARLINK-4267           
1 52864U 22062AL  22190.58334491 -.00169527  00000+0 -12330-2 0  9990
2 52864  53.2158 295.6897 0002137  29.9194 311.6009 15.73101026  1304
STARLINK-4274           
1 52865U 22062AM  22190.58334491  .00001646  00000+0  16147-4 0  9998
2 52865  53.2149 295.6819 0001989  26.9263 317.3294 15.73199897  1309
STARLINK-4272           
1 52866U 22062AN  22190.66667824 -.00072191  00000+0 -51718-3 0  9994
2 52866  53.2153 295.2737 0001854  30.4907  64.4002 15.73071163  3984
STARLINK-4126           
1 52867U 22062AP  22190.66667824  .00308282  00000+0  21386-2 0  9993
2 52867  53.2173 295.2681 0001716  26.5633  71.0896 15.73009787  3982
STARLINK-4261           
1 52868U 22062AQ  22190.58334491  .00018570  00000+0  13653-3 0  9993
2 52868  53.2147 295.6819 0001860  28.8526 314.8055 15.73183262  1307
STARLINK-4266           
1 52869U 22062AR  22190.66667824 -.00037127  00000+0 -26298-3 0  9992
2 52869  53.2157 295.2686 0002029  24.3059  74.1918 15.73046462  3987
STARLINK-4195           
1 52870U 22062AS  22190.66667824  .00054861  00000+0  39380-3 0  9992
2 52870  53.2153 295.2689 0002065  28.0509  69.0107 15.73136734  3984
STARLINK-4207           
1 52871U 22062AT  22190.66667824  .00066361  00000+0  47486-3 0  9997
2 52871  53.2150 295.2628 0002152  37.7104  62.3198 15.73132356  3982
STARLINK-4213           
1 52872U 22062AU  22190.66667824 -.00037294  00000+0 -26451-3 0  9992
2 52872  53.2150 295.2643 0001973  31.9603  67.1411 15.73018563  3984
STARLINK-4211           
1 52873U 22062AV  22190.66667824 -.00046266  00000+0 -32566-3 0  9996
2 52873  53.2151 295.2611 0002195  20.9291  80.5293 15.73294670  3981
STARLINK-4210           
1 52874U 22062AW  22190.66667824  .00033280  00000+0  24099-3 0  9999
2 52874  53.2153 295.2637 0002344  35.5415  64.0739 15.73160754  3985
STARLINK-4193           
1 52875U 22062AX  22190.58334491 -.00124322  00000+0 -89864-3 0  9993
2 52875  53.2150 295.6714 0002024  26.2452 323.5951 15.73090224  1303
STARLINK-4200           
1 52876U 22062AY  22190.58334491  .00011767  00000+0  88207-4 0  9991
2 52876  53.2150 295.6740 0002064  33.2408 315.2040 15.73181783  1304
STARLINK-4214           
1 52877U 22062AZ  22190.66667824  .00067955  00000+0  48526-3 0  9999
2 52877  53.2153 295.2577 0001963  35.4737  67.5620 15.73171637  3982
STARLINK-4171           
1 52878U 22062BA  22190.58334491 -.00110123  00000+0 -79392-3 0  9995
2 52878  53.2152 295.6703 0001960  24.5264 325.9268 15.73097600  1308
STARLINK-4139           
1 52879U 22062BB  22190.66667824  .00000302  00000+0  65733-5 0  9995
2 52879  53.2174 295.2542 0001915  16.4295  88.2748 15.73204113  3981
STARLINK-4186           
1 52880U 22062BC  22190.58334491 -.00003056  00000+0 -17350-4 0  9991
2 52880  53.2172 295.6668 0002144  42.9402 308.9342 15.73205502  1302
STARLINK-4192           
1 52881U 22062BD  22190.58334491 -.00166044  00000+0 -12059-2 0  9998
2 52881  53.2153 295.6692 0002057  32.3493 319.2488 15.73124070  1301
STARLINK-4181           
1 52882U 22062BE  22190.66667824 -.00043514  00000+0 -30946-3 0  9999
2 52882  53.2156 295.2540 0002110  30.0835  75.5700 15.73028209  3980
FALCON 9 DEB            
1 52883U 22062BF  22188.79240019  .07116221  12340-4  45491-3 0  9991
2 52883  53.2105 300.6387 0007992 106.1842 254.0087 16.40944681  3259
FALCON 9 DEB            
1 52884U 22062BG  22189.15508000  .10731535  12508-4  27620-3 0  9995
2 52884  53.1966 298.6141 0005042  87.6062 272.5566 16.45634105  3315
FALCON 9 DEB            
1 52885U 22062BH  22188.52263366  .06756059  12449-4  30044-3 0  9990
2 52885  53.2091 301.7802 0004599  81.1646 278.9925 16.43276845  3218
FALCON 9 DEB            
1 52886U 22062BJ  22187.53208286  .06448109  12426-4  36225-3 0  9997
2 52886  53.2136 306.9790 0008326  76.7062 283.4915 16.41839320  3059
SARAH-1                 
1 52887U 22063A   22174.76914807  .00057931  00000+0  16917-1 0  9990
2 52887  98.3930 181.8659 0001741 114.3380 245.7128 14.43706701  1277
GLOBALSTAR FM15         
1 52888U 22064A   22190.35051945 -.00000128  00000+0  00000+0 0  9991
2 52888  51.9745 159.9626 0009710   6.7104 353.3919 13.37539462  2667
